{
  "type": "FeatureCollection",
  "features": [
    {
      "type": "Feature",
      "properties": {
        "norad_id": 15362,
        "name": "NOVA 3",
        "group": "nnss",
        "lat": 37.160630380445106,
        "lon": -99.43004826310062,
        "alt_km": 1191.943052141929,
        "timestamp": "2025-12-07T20:38:14.332480+00:00",
        "meta_object_name": "NOVA 3",
        "meta_object_id": "1984-110A",
        "meta_epoch": "2025-12-07T05:32:17.973312",
        "meta_mean_motion": 13.23043506,
        "meta_eccentricity": 0.00309285,
        "meta_inclination": 90.1223,
        "meta_ra_of_asc_node": 80.4698,
        "meta_arg_of_pericenter": 347.4743,
        "meta_mean_anomaly": 40.3832,
        "meta_ephemeris_type": 0,
        "meta_classification_type": "U",
        "meta_norad_cat_id": 15362,
        "meta_element_set_no": 999,
        "meta_rev_at_epoch": 98626,
        "meta_bstar": 0.00027036064,
        "meta_mean_motion_dot": 1.22e-06,
        "meta_mean_motion_ddot": 0,
        "tle_line1": "1 15362U 84110A   25341.23076358  .00000122  00000+0  27036-3 0  9995",
        "tle_line2": "2 15362  90.1223  80.4698 0030928 347.4743  40.3832 13.23043506986263"
      },
      "geometry": {
        "type": "Point",
        "coordinates": [
          -99.43004826310062,
          37.160630380445106
        ]
      }
    },
    {
      "type": "Feature",
      "properties": {
        "norad_id": 15935,
        "name": "OSCAR 30",
        "group": "nnss",
        "lat": -7.25794341400707,
        "lon": 99.78827523207936,
        "alt_km": 1157.8819968197795,
        "timestamp": "2025-12-07T20:38:14.332490+00:00",
        "meta_object_name": "OSCAR 30",
        "meta_object_id": "1985-066A",
        "meta_epoch": "2025-12-07T06:21:13.040064",
        "meta_mean_motion": 13.36076856,
        "meta_eccentricity": 0.01693934,
        "meta_inclination": 90.1649,
        "meta_ra_of_asc_node": 99.7576,
        "meta_arg_of_pericenter": 99.1847,
        "meta_mean_anomaly": 274.6192,
        "meta_ephemeris_type": 0,
        "meta_classification_type": "U",
        "meta_norad_cat_id": 15935,
        "meta_element_set_no": 999,
        "meta_rev_at_epoch": 96380,
        "meta_bstar": 0.00023964509,
        "meta_mean_motion_dot": 1.44e-06,
        "meta_mean_motion_ddot": 0,
        "tle_line1": "1 15935U 85066A   25341.26473426  .00000144  00000+0  23965-3 0  9993",
        "tle_line2": "2 15935  90.1649  99.7576 0169393  99.1847 274.6192 13.36076856963808"
      },
      "geometry": {
        "type": "Point",
        "coordinates": [
          99.78827523207936,
          -7.25794341400707
        ]
      }
    },
    {
      "type": "Feature",
      "properties": {
        "norad_id": 15936,
        "name": "OSCAR 24",
        "group": "nnss",
        "lat": 71.51241660834125,
        "lon": 91.6840187413815,
        "alt_km": 1009.0749247491585,
        "timestamp": "2025-12-07T20:38:14.332501+00:00",
        "meta_object_name": "OSCAR 24",
        "meta_object_id": "1985-066B",
        "meta_epoch": "2025-12-07T06:02:19.334688",
        "meta_mean_motion": 13.35934518,
        "meta_eccentricity": 0.01704065,
        "meta_inclination": 90.1788,
        "meta_ra_of_asc_node": 92.2084,
        "meta_arg_of_pericenter": 105.6595,
        "meta_mean_anomaly": 283.2203,
        "meta_ephemeris_type": 0,
        "meta_classification_type": "U",
        "meta_norad_cat_id": 15936,
        "meta_element_set_no": 999,
        "meta_rev_at_epoch": 96570,
        "meta_bstar": 0.00022570747,
        "meta_mean_motion_dot": 1.36e-06,
        "meta_mean_motion_ddot": 0,
        "tle_line1": "1 15936U 85066B   25341.25161267  .00000136  00000+0  22571-3 0  9993",
        "tle_line2": "2 15936  90.1788  92.2084 0170406 105.6595 283.2203 13.35934518965702"
      },
      "geometry": {
        "type": "Point",
        "coordinates": [
          91.6840187413815,
          71.51241660834125
        ]
      }
    },
    {
      "type": "Feature",
      "properties": {
        "norad_id": 17070,
        "name": "POLAR BEAR",
        "group": "nnss",
        "lat": -61.03458400732766,
        "lon": -176.7221469039186,
        "alt_km": 1016.9972331520567,
        "timestamp": "2025-12-07T20:38:14.332512+00:00",
        "meta_object_name": "POLAR BEAR",
        "meta_object_id": "1986-088A",
        "meta_epoch": "2025-12-07T07:48:17.127072",
        "meta_mean_motion": 13.75249186,
        "meta_eccentricity": 0.00406211,
        "meta_inclination": 89.6178,
        "meta_ra_of_asc_node": 183.9903,
        "meta_arg_of_pericenter": 134.9705,
        "meta_mean_anomaly": 38.3571,
        "meta_ephemeris_type": 0,
        "meta_classification_type": "U",
        "meta_norad_cat_id": 17070,
        "meta_element_set_no": 999,
        "meta_rev_at_epoch": 95904,
        "meta_bstar": 0.00016551922,
        "meta_mean_motion_dot": 1.71e-06,
        "meta_mean_motion_ddot": 0,
        "tle_line1": "1 17070U 86088A   25341.32519823  .00000171  00000+0  16552-3 0  9993",
        "tle_line2": "2 17070  89.6178 183.9903 0040621 134.9705  38.3571 13.75249186959041"
      },
      "geometry": {
        "type": "Point",
        "coordinates": [
          -176.7221469039186,
          -61.03458400732766
        ]
      }
    },
    {
      "type": "Feature",
      "properties": {
        "norad_id": 18361,
        "name": "OSCAR 27",
        "group": "nnss",
        "lat": 9.44874789575488,
        "lon": 79.0273285242591,
        "alt_km": 1143.1091244217132,
        "timestamp": "2025-12-07T20:38:14.332521+00:00",
        "meta_object_name": "OSCAR 27",
        "meta_object_id": "1987-080A",
        "meta_epoch": "2025-12-07T06:18:18.896544",
        "meta_mean_motion": 13.44904968,
        "meta_eccentricity": 0.01025646,
        "meta_inclination": 90.3741,
        "meta_ra_of_asc_node": 79.0673,
        "meta_arg_of_pericenter": 239.6904,
        "meta_mean_anomaly": 119.4067,
        "meta_ephemeris_type": 0,
        "meta_classification_type": "U",
        "meta_norad_cat_id": 18361,
        "meta_element_set_no": 999,
        "meta_rev_at_epoch": 87483,
        "meta_bstar": 0.00030119903,
        "meta_mean_motion_dot": 1.9e-06,
        "meta_mean_motion_ddot": 0,
        "tle_line1": "1 18361U 87080A   25341.26271871  .00000190  00000+0  30120-3 0  9999",
        "tle_line2": "2 18361  90.3741  79.0673 0102564 239.6904 119.4067 13.44904968874834"
      },
      "geometry": {
        "type": "Point",
        "coordinates": [
          79.0273285242591,
          9.44874789575488
        ]
      }
    },
    {
      "type": "Feature",
      "properties": {
        "norad_id": 18362,
        "name": "OSCAR 29",
        "group": "nnss",
        "lat": 29.749745063315032,
        "lon": 79.33349319093111,
        "alt_km": 1138.9821329877868,
        "timestamp": "2025-12-07T20:38:14.332531+00:00",
        "meta_object_name": "OSCAR 29",
        "meta_object_id": "1987-080B",
        "meta_epoch": "2025-12-07T06:20:27.910752",
        "meta_mean_motion": 13.44446856,
        "meta_eccentricity": 0.01037416,
        "meta_inclination": 90.3753,
        "meta_ra_of_asc_node": 79.5258,
        "meta_arg_of_pericenter": 263.0926,
        "meta_mean_anomaly": 124.4441,
        "meta_ephemeris_type": 0,
        "meta_classification_type": "U",
        "meta_norad_cat_id": 18362,
        "meta_element_set_no": 999,
        "meta_rev_at_epoch": 87436,
        "meta_bstar": 0.00026525984,
        "meta_mean_motion_dot": 1.67e-06,
        "meta_mean_motion_ddot": 0,
        "tle_line1": "1 18362U 87080B   25341.26421193  .00000167  00000+0  26526-3 0  9993",
        "tle_line2": "2 18362  90.3753  79.5258 0103741 263.0926 124.4441 13.44446856874362"
      },
      "geometry": {
        "type": "Point",
        "coordinates": [
          79.33349319093111,
          29.749745063315032
        ]
      }
    },
    {
      "type": "Feature",
      "properties": {
        "norad_id": 19070,
        "name": "OSCAR 23",
        "group": "nnss",
        "lat": 85.54982741633202,
        "lon": -159.61893670209406,
        "alt_km": 1167.521878675636,
        "timestamp": "2025-12-07T20:38:14.332541+00:00",
        "meta_object_name": "OSCAR 23",
        "meta_object_id": "1988-033A",
        "meta_epoch": "2025-12-07T02:12:39.212928",
        "meta_mean_motion": 13.27785953,
        "meta_eccentricity": 0.01890572,
        "meta_inclination": 90.3217,
        "meta_ra_of_asc_node": 16.2175,
        "meta_arg_of_pericenter": 195.6411,
        "meta_mean_anomaly": 193.1177,
        "meta_ephemeris_type": 0,
        "meta_classification_type": "U",
        "meta_norad_cat_id": 19070,
        "meta_element_set_no": 999,
        "meta_rev_at_epoch": 82178,
        "meta_bstar": 0.0002681236,
        "meta_mean_motion_dot": 1.41e-06,
        "meta_mean_motion_ddot": 0,
        "tle_line1": "1 19070U 88033A   25341.09212052  .00000141  00000+0  26812-3 0  9992",
        "tle_line2": "2 19070  90.3217  16.2175 0189057 195.6411 193.1177 13.27785953821785"
      },
      "geometry": {
        "type": "Point",
        "coordinates": [
          -159.61893670209406,
          85.54982741633202
        ]
      }
    }
  ]
}